LEMUR-2-JK0903EM1407    
1 58336U 23174CJ  26073.20096585  .00031884  00000+0  63235-3 0  9990
2 58336  97.3917 161.3728 0005994 100.4600 259.7325 15.46952458131028
LEMUR-2-MJR092620       
1 58340U 23174CN  26073.56873083  .00016987  00000+0  39596-3 0  9990
2 58340  97.3981 162.0706 0008209 100.8346 259.3826 15.42286230131050
LEMUR-2-NIMBUS2000      
1 58899U 24022A   26073.57470629  .00023923  00000+0  66148-3 0  9993
2 58899  97.4229 282.5348 0010697  97.9867 262.2591 15.36966406117726
LEMUR-2-VALHALLA        
1 58900U 24022B   26073.55462175  .00023612  00000+0  65789-3 0  9996
2 58900  97.4230 282.5461 0011233  93.9918 266.2610 15.36725399117727
LEMUR-2-OBA-NI-JESU     
1 58902U 24022D   26073.58766986  .00136913  00000+0  12943-2 0  9990
2 58902  97.4060 291.8998 0004632  56.3511 303.8190 15.66548759118363
LEMUR-2-CAEL            
1 58903U 24022E   26073.57369790  .00024582  00000+0  66028-3 0  9994
2 58903  97.4213 283.3467 0009464  79.3339 280.8971 15.37873987117780
LEMUR-2-JOHNNYTRUONG    
1 59146U 24043BA  26073.35505946  .00044033  00000+0  69158-3 0  9998
2 59146  97.5262 219.7514 0005416 169.3928 190.7440 15.53516806113281
LEMUR-2-TOMATOKECHUP    
1 60471U 24149D   26073.19370810  .00023472  00000+0  71588-3 0  9994
2 60471  97.3826 155.1343 0001811 168.6095 191.5189 15.33941159 87597
LEMUR-2-STELLA          
1 60533U 24149BT  26073.49924618  .00016109  00000+0  10046-2 0  9997
2 60533  97.6770 155.6912 0001229  93.1030 267.0340 15.09610099 86202
LEMUR-2-MARHISYAM       
1 60536U 24149BW  26073.18295095  .00015556  00000+0  98272-3 0  9999
2 60536  97.6907 155.7199 0003145  98.1221 262.0365 15.09141871 86143
LEMUR-2-AHMED-ASRAR     
1 60576U 24149DN  26073.50245108  .00015510  00000+0  94374-3 0  9998
2 60576  97.7032 157.7841 0001270   4.5727 355.5513 15.10518019 86262
LEMUR-2-LLOYD           
1 60577U 24149DP  26073.63829309  .00016702  00000+0  11082-2 0  9992
2 60577  97.6782 154.8456 0005078 113.2526 246.9237 15.07309978 86140
LEMUR-2-SQUIRRELCOMM    
1 60578U 24149DQ  26073.47818111  .00008380  00000+0  57928-3 0  9997
2 60578  97.6758 154.7621 0005890  30.7203 329.4367 15.05966536 86142
LEMUR-2-SIERRINI        
1 60579U 24149DR  26073.18616723  .00015033  00000+0  95829-3 0  9996
2 60579  97.6860 155.5056 0006616 138.2813 221.8920 15.08804112 86128
LEMUR-2-WILSON          
1 62694U 25009CP  26073.18336326  .00002904  00000+0  27274-3 0  9992
2 62694  97.7071 153.3326 0003352  23.5274 336.6099 14.94712804 63161
LEMUR-2-STAR-FOX        
1 62696U 25009CR  26073.47932089  .00011765  00000+0  92574-3 0  9994
2 62696  97.7033 155.8814 0003013 143.5284 216.6146 15.00981919 63341
