[{"OBJECT_NAME":"LEMUR-2-JK0903EM1407","OBJECT_ID":"2023-174CJ","EPOCH":"2026-03-14T04:49:23.449440","MEAN_MOTION":15.46952458,"ECCENTRICITY":0.00059942,"INCLINATION":97.3917,"RA_OF_ASC_NODE":161.3728,"ARG_OF_PERICENTER":100.46,"MEAN_ANOMALY":259.7325,"EPHEMERIS_TYPE":0,"CLASSIFICATION_TYPE":"U","NORAD_CAT_ID":58336,"ELEMENT_SET_NO":999,"REV_AT_EPOCH":13102,"BSTAR":0.00063234739,"MEAN_MOTION_DOT":0.00031884,"MEAN_MOTION_DDOT":0},{"OBJECT_NAME":"LEMUR-2-MJR092620","OBJECT_ID":"2023-174CN","EPOCH":"2026-03-14T13:38:58.343712","MEAN_MOTION":15.4228623,"ECCENTRICITY":0.00082092,"INCLINATION":97.3981,"RA_OF_ASC_NODE":162.0706,"ARG_OF_PERICENTER":100.8346,"MEAN_ANOMALY":259.3826,"EPHEMERIS_TYPE":0,"CLASSIFICATION_TYPE":"U","NORAD_CAT_ID":58340,"ELEMENT_SET_NO":999,"REV_AT_EPOCH":13105,"BSTAR":0.00039595602,"MEAN_MOTION_DOT":0.00016987,"MEAN_MOTION_DDOT":0},{"OBJECT_NAME":"LEMUR-2-NIMBUS2000","OBJECT_ID":"2024-022A","EPOCH":"2026-03-14T13:47:34.623456","MEAN_MOTION":15.36966406,"ECCENTRICITY":0.00106975,"INCLINATION":97.4229,"RA_OF_ASC_NODE":282.5348,"ARG_OF_PERICENTER":97.9867,"MEAN_ANOMALY":262.2591,"EPHEMERIS_TYPE":0,"CLASSIFICATION_TYPE":"U","NORAD_CAT_ID":58899,"ELEMENT_SET_NO":999,"REV_AT_EPOCH":11772,"BSTAR":0.00066147591,"MEAN_MOTION_DOT":0.00023923,"MEAN_MOTION_DDOT":0},{"OBJECT_NAME":"LEMUR-2-VALHALLA","OBJECT_ID":"2024-022B","EPOCH":"2026-03-14T13:18:39.319200","MEAN_MOTION":15.36725399,"ECCENTRICITY":0.00112339,"INCLINATION":97.423,"RA_OF_ASC_NODE":282.5461,"ARG_OF_PERICENTER":93.9918,"MEAN_ANOMALY":266.261,"EPHEMERIS_TYPE":0,"CLASSIFICATION_TYPE":"U","NORAD_CAT_ID":58900,"ELEMENT_SET_NO":999,"REV_AT_EPOCH":11772,"BSTAR":0.00065788569,"MEAN_MOTION_DOT":0.00023612,"MEAN_MOTION_DDOT":0},{"OBJECT_NAME":"LEMUR-2-OBA-NI-JESU","OBJECT_ID":"2024-022D","EPOCH":"2026-03-14T14:06:14.675904","MEAN_MOTION":15.66548759,"ECCENTRICITY":0.00046322,"INCLINATION":97.406,"RA_OF_ASC_NODE":291.8998,"ARG_OF_PERICENTER":56.3511,"MEAN_ANOMALY":303.819,"EPHEMERIS_TYPE":0,"CLASSIFICATION_TYPE":"U","NORAD_CAT_ID":58902,"ELEMENT_SET_NO":999,"REV_AT_EPOCH":11836,"BSTAR":0.0012943126,"MEAN_MOTION_DOT":0.00136913,"MEAN_MOTION_DDOT":0},{"OBJECT_NAME":"LEMUR-2-CAEL","OBJECT_ID":"2024-022E","EPOCH":"2026-03-14T13:46:07.498560","MEAN_MOTION":15.37873987,"ECCENTRICITY":0.00094647,"INCLINATION":97.4213,"RA_OF_ASC_NODE":283.3467,"ARG_OF_PERICENTER":79.3339,"MEAN_ANOMALY":280.8971,"EPHEMERIS_TYPE":0,"CLASSIFICATION_TYPE":"U","NORAD_CAT_ID":58903,"ELEMENT_SET_NO":999,"REV_AT_EPOCH":11778,"BSTAR":0.00066027699,"MEAN_MOTION_DOT":0.00024582,"MEAN_MOTION_DDOT":0},{"OBJECT_NAME":"LEMUR-2-JOHNNYTRUONG","OBJECT_ID":"2024-043BA","EPOCH":"2026-03-14T08:31:17.137344","MEAN_MOTION":15.53516806,"ECCENTRICITY":0.00054164,"INCLINATION":97.5262,"RA_OF_ASC_NODE":219.7514,"ARG_OF_PERICENTER":169.3928,"MEAN_ANOMALY":190.744,"EPHEMERIS_TYPE":0,"CLASSIFICATION_TYPE":"U","NORAD_CAT_ID":59146,"ELEMENT_SET_NO":999,"REV_AT_EPOCH":11328,"BSTAR":0.00069157896,"MEAN_MOTION_DOT":0.00044033,"MEAN_MOTION_DDOT":0},{"OBJECT_NAME":"LEMUR-2-TOMATOKECHUP","OBJECT_ID":"2024-149D","EPOCH":"2026-03-14T04:38:56.379840","MEAN_MOTION":15.33941159,"ECCENTRICITY":0.00018112,"INCLINATION":97.3826,"RA_OF_ASC_NODE":155.1343,"ARG_OF_PERICENTER":168.6095,"MEAN_ANOMALY":191.5189,"EPHEMERIS_TYPE":0,"CLASSIFICATION_TYPE":"U","NORAD_CAT_ID":60471,"ELEMENT_SET_NO":999,"REV_AT_EPOCH":8759,"BSTAR":0.00071587773,"MEAN_MOTION_DOT":0.00023472,"MEAN_MOTION_DDOT":0},{"OBJECT_NAME":"LEMUR-2-STELLA","OBJECT_ID":"2024-149BT","EPOCH":"2026-03-14T11:58:54.869952","MEAN_MOTION":15.09610099,"ECCENTRICITY":0.0001229,"INCLINATION":97.677,"RA_OF_ASC_NODE":155.6912,"ARG_OF_PERICENTER":93.103,"MEAN_ANOMALY":267.034,"EPHEMERIS_TYPE":0,"CLASSIFICATION_TYPE":"U","NORAD_CAT_ID":60533,"ELEMENT_SET_NO":999,"REV_AT_EPOCH":8620,"BSTAR":0.0010046007,"MEAN_MOTION_DOT":0.00016109,"MEAN_MOTION_DDOT":0},{"OBJECT_NAME":"LEMUR-2-MARHISYAM","OBJECT_ID":"2024-149BW","EPOCH":"2026-03-14T04:23:26.962080","MEAN_MOTION":15.09141871,"ECCENTRICITY":0.00031457,"INCLINATION":97.6907,"RA_OF_ASC_NODE":155.7199,"ARG_OF_PERICENTER":98.1221,"MEAN_ANOMALY":262.0365,"EPHEMERIS_TYPE":0,"CLASSIFICATION_TYPE":"U","NORAD_CAT_ID":60536,"ELEMENT_SET_NO":999,"REV_AT_EPOCH":8614,"BSTAR":0.00098272422,"MEAN_MOTION_DOT":0.00015556,"MEAN_MOTION_DDOT":0},{"OBJECT_NAME":"LEMUR-2-AHMED-ASRAR","OBJECT_ID":"2024-149DN","EPOCH":"2026-03-14T12:03:31.773312","MEAN_MOTION":15.10518019,"ECCENTRICITY":0.00012705,"INCLINATION":97.7032,"RA_OF_ASC_NODE":157.7841,"ARG_OF_PERICENTER":4.5727,"MEAN_ANOMALY":355.5513,"EPHEMERIS_TYPE":0,"CLASSIFICATION_TYPE":"U","NORAD_CAT_ID":60576,"ELEMENT_SET_NO":999,"REV_AT_EPOCH":8626,"BSTAR":0.00094373938,"MEAN_MOTION_DOT":0.0001551,"MEAN_MOTION_DDOT":0},{"OBJECT_NAME":"LEMUR-2-LLOYD","OBJECT_ID":"2024-149DP","EPOCH":"2026-03-14T15:19:08.522976","MEAN_MOTION":15.07309978,"ECCENTRICITY":0.00050785,"INCLINATION":97.6782,"RA_OF_ASC_NODE":154.8456,"ARG_OF_PERICENTER":113.2526,"MEAN_ANOMALY":246.9237,"EPHEMERIS_TYPE":0,"CLASSIFICATION_TYPE":"U","NORAD_CAT_ID":60577,"ELEMENT_SET_NO":999,"REV_AT_EPOCH":8614,"BSTAR":0.0011082179,"MEAN_MOTION_DOT":0.00016702,"MEAN_MOTION_DDOT":0},{"OBJECT_NAME":"LEMUR-2-SQUIRRELCOMM","OBJECT_ID":"2024-149DQ","EPOCH":"2026-03-14T11:28:34.847904","MEAN_MOTION":15.05966536,"ECCENTRICITY":0.00058907,"INCLINATION":97.6758,"RA_OF_ASC_NODE":154.7621,"ARG_OF_PERICENTER":30.7203,"MEAN_ANOMALY":329.4367,"EPHEMERIS_TYPE":0,"CLASSIFICATION_TYPE":"U","NORAD_CAT_ID":60578,"ELEMENT_SET_NO":999,"REV_AT_EPOCH":8614,"BSTAR":0.00057927549,"MEAN_MOTION_DOT":8.38e-5,"MEAN_MOTION_DDOT":0},{"OBJECT_NAME":"LEMUR-2-SIERRINI","OBJECT_ID":"2024-149DR","EPOCH":"2026-03-14T04:28:04.848672","MEAN_MOTION":15.08804112,"ECCENTRICITY":0.00066163,"INCLINATION":97.686,"RA_OF_ASC_NODE":155.5056,"ARG_OF_PERICENTER":138.2813,"MEAN_ANOMALY":221.892,"EPHEMERIS_TYPE":0,"CLASSIFICATION_TYPE":"U","NORAD_CAT_ID":60579,"ELEMENT_SET_NO":999,"REV_AT_EPOCH":8612,"BSTAR":0.00095829463,"MEAN_MOTION_DOT":0.00015033,"MEAN_MOTION_DDOT":0},{"OBJECT_NAME":"LEMUR-2-WILSON","OBJECT_ID":"2025-009CP","EPOCH":"2026-03-14T04:24:02.585664","MEAN_MOTION":14.94712804,"ECCENTRICITY":0.00033522,"INCLINATION":97.7071,"RA_OF_ASC_NODE":153.3326,"ARG_OF_PERICENTER":23.5274,"MEAN_ANOMALY":336.6099,"EPHEMERIS_TYPE":0,"CLASSIFICATION_TYPE":"U","NORAD_CAT_ID":62694,"ELEMENT_SET_NO":999,"REV_AT_EPOCH":6316,"BSTAR":0.00027273671,"MEAN_MOTION_DOT":2.904e-5,"MEAN_MOTION_DDOT":0},{"OBJECT_NAME":"LEMUR-2-STAR-FOX","OBJECT_ID":"2025-009CR","EPOCH":"2026-03-14T11:30:13.324896","MEAN_MOTION":15.00981919,"ECCENTRICITY":0.00030137,"INCLINATION":97.7033,"RA_OF_ASC_NODE":155.8814,"ARG_OF_PERICENTER":143.5284,"MEAN_ANOMALY":216.6146,"EPHEMERIS_TYPE":0,"CLASSIFICATION_TYPE":"U","NORAD_CAT_ID":62696,"ELEMENT_SET_NO":999,"REV_AT_EPOCH":6334,"BSTAR":0.0009257384,"MEAN_MOTION_DOT":0.00011765,"MEAN_MOTION_DDOT":0}]
